{
  "type": "FeatureCollection",
  "features": [
    {
      "type": "Feature",
      "properties": {
        "norad_id": 24876,
        "name": "GPS BIIR-2  (PRN 13)",
        "group": "gnss",
        "lat": -43.134818092281414,
        "lon": 66.47277431733995,
        "alt_km": 20283.954904337166,
        "timestamp": "2025-12-13T03:42:11.515658+00:00",
        "meta_object_name": "GPS BIIR-2  (PRN 13)",
        "meta_object_id": "1997-035A",
        "meta_epoch": "2025-12-10T17:43:14.126880",
        "meta_mean_motion": 2.00563589,
        "meta_eccentricity": 0.0096757,
        "meta_inclination": 55.8943,
        "meta_ra_of_asc_node": 105.9471,
        "meta_arg_of_pericenter": 57.0036,
        "meta_mean_anomaly": 303.9018,
        "meta_ephemeris_type": 0,
        "meta_classification_type": "U",
        "meta_norad_cat_id": 24876,
        "meta_element_set_no": 999,
        "meta_rev_at_epoch": 20817,
        "meta_bstar": 0,
        "meta_mean_motion_dot": 2.2e-07,
        "meta_mean_motion_ddot": 0,
        "tle_line1": "1 24876U 97035A   25344.73835795  .00000022  00000+0  00000+0 0  9998",
        "tle_line2": "2 24876  55.8943 105.9471 0096757  57.0036 303.9018  2.00563589208175"
      },
      "geometry": {
        "type": "Point",
        "coordinates": [
          66.47277431733995,
          -43.134818092281414
        ]
      }
    },
    {
      "type": "Feature",
      "properties": {
        "norad_id": 26360,
        "name": "GPS BIIR-4  (PRN 20)",
        "group": "gnss",
        "lat": 29.874015096988106,
        "lon": 50.51130618225151,
        "alt_km": 20272.275114141557,
        "timestamp": "2025-12-13T03:42:11.515709+00:00",
        "meta_object_name": "GPS BIIR-4  (PRN 20)",
        "meta_object_id": "2000-025A",
        "meta_epoch": "2025-12-11T15:38:07.687104",
        "meta_mean_motion": 2.0056778,
        "meta_eccentricity": 0.00388662,
        "meta_inclination": 55.0445,
        "meta_ra_of_asc_node": 26.8818,
        "meta_arg_of_pericenter": 241.8871,
        "meta_mean_anomaly": 150.2644,
        "meta_ephemeris_type": 0,
        "meta_classification_type": "U",
        "meta_norad_cat_id": 26360,
        "meta_element_set_no": 999,
        "meta_rev_at_epoch": 18751,
        "meta_bstar": 0,
        "meta_mean_motion_dot": -1e-06,
        "meta_mean_motion_ddot": 0,
        "tle_line1": "1 26360U 00025A   25345.65147786 -.00000100  00000+0  00000+0 0  9997",
        "tle_line2": "2 26360  55.0445  26.8818 0038866 241.8871 150.2644  2.00567780187516"
      },
      "geometry": {
        "type": "Point",
        "coordinates": [
          50.51130618225151,
          29.874015096988106
        ]
      }
    },
    {
      "type": "Feature",
      "properties": {
        "norad_id": 26407,
        "name": "GPS BIIR-5  (PRN 22)",
        "group": "gnss",
        "lat": -42.420015328331054,
        "lon": 82.52567113725507,
        "alt_km": 20049.066576637353,
        "timestamp": "2025-12-13T03:42:11.515729+00:00",
        "meta_object_name": "GPS BIIR-5  (PRN 22)",
        "meta_object_id": "2000-040A",
        "meta_epoch": "2025-12-11T13:24:36.235008",
        "meta_mean_motion": 2.00567937,
        "meta_eccentricity": 0.01260768,
        "meta_inclination": 54.891,
        "meta_ra_of_asc_node": 222.6159,
        "meta_arg_of_pericenter": 301.789,
        "meta_mean_anomaly": 223.0098,
        "meta_ephemeris_type": 0,
        "meta_classification_type": "U",
        "meta_norad_cat_id": 26407,
        "meta_element_set_no": 999,
        "meta_rev_at_epoch": 18618,
        "meta_bstar": 0,
        "meta_mean_motion_dot": 3e-08,
        "meta_mean_motion_ddot": 0,
        "tle_line1": "1 26407U 00040A   25345.55875272  .00000003  00000+0  00000+0 0  9994",
        "tle_line2": "2 26407  54.8910 222.6159 0126076 301.7890 223.0098  2.00567937186182"
      },
      "geometry": {
        "type": "Point",
        "coordinates": [
          82.52567113725507,
          -42.420015328331054
        ]
      }
    },
    {
      "type": "Feature",
      "properties": {
        "norad_id": 27663,
        "name": "GPS BIIR-8  (PRN 16)",
        "group": "gnss",
        "lat": 9.49291253958093,
        "lon": -130.88883076661804,
        "alt_km": 19878.59999503425,
        "timestamp": "2025-12-13T03:42:11.515744+00:00",
        "meta_object_name": "GPS BIIR-8  (PRN 16)",
        "meta_object_id": "2003-005A",
        "meta_epoch": "2025-12-11T15:45:05.050944",
        "meta_mean_motion": 2.00570963,
        "meta_eccentricity": 0.01474213,
        "meta_inclination": 54.9236,
        "meta_ra_of_asc_node": 222.4214,
        "meta_arg_of_pericenter": 51.7853,
        "meta_mean_anomaly": 319.3276,
        "meta_ephemeris_type": 0,
        "meta_classification_type": "U",
        "meta_norad_cat_id": 27663,
        "meta_element_set_no": 999,
        "meta_rev_at_epoch": 16755,
        "meta_bstar": 0,
        "meta_mean_motion_dot": 4e-08,
        "meta_mean_motion_ddot": 0,
        "tle_line1": "1 27663U 03005A   25345.65630846  .00000004  00000+0  00000+0 0  9991",
        "tle_line2": "2 27663  54.9236 222.4214 0147421  51.7853 319.3276  2.00570963167557"
      },
      "geometry": {
        "type": "Point",
        "coordinates": [
          -130.88883076661804,
          9.49291253958093
        ]
      }
    },
    {
      "type": "Feature",
      "properties": {
        "norad_id": 28190,
        "name": "GPS BIIR-11 (PRN 19)",
        "group": "gnss",
        "lat": 6.8470510970312235,
        "lon": 98.36334186067143,
        "alt_km": 19894.541767915962,
        "timestamp": "2025-12-13T03:42:11.515758+00:00",
        "meta_object_name": "GPS BIIR-11 (PRN 19)",
        "meta_object_id": "2004-009A",
        "meta_epoch": "2025-12-11T22:20:18.324960",
        "meta_mean_motion": 2.00560799,
        "meta_eccentricity": 0.0108335,
        "meta_inclination": 54.9863,
        "meta_ra_of_asc_node": 283.2515,
        "meta_arg_of_pericenter": 167.6362,
        "meta_mean_anomaly": 200.4215,
        "meta_ephemeris_type": 0,
        "meta_classification_type": "U",
        "meta_norad_cat_id": 28190,
        "meta_element_set_no": 999,
        "meta_rev_at_epoch": 15919,
        "meta_bstar": 0,
        "meta_mean_motion_dot": -7.6e-07,
        "meta_mean_motion_ddot": 0,
        "tle_line1": "1 28190U 04009A   25345.93076765 -.00000076  00000+0  00000+0 0  9997",
        "tle_line2": "2 28190  54.9863 283.2515 0108335 167.6362 200.4215  2.00560799159191"
      },
      "geometry": {
        "type": "Point",
        "coordinates": [
          98.36334186067143,
          6.8470510970312235
        ]
      }
    },
    {
      "type": "Feature",
      "properties": {
        "norad_id": 28474,
        "name": "GPS BIIR-13 (PRN 02)",
        "group": "gnss",
        "lat": -38.81223431974794,
        "lon": -173.66856604701078,
        "alt_km": 20095.6214684276,
        "timestamp": "2025-12-13T03:42:11.515771+00:00",
        "meta_object_name": "GPS BIIR-13 (PRN 02)",
        "meta_object_id": "2004-045A",
        "meta_epoch": "2025-12-11T20:09:21.883104",
        "meta_mean_motion": 2.00569463,
        "meta_eccentricity": 0.0170746,
        "meta_inclination": 55.2411,
        "meta_ra_of_asc_node": 332.4419,
        "meta_arg_of_pericenter": 309.2085,
        "meta_mean_anomaly": 53.2722,
        "meta_ephemeris_type": 0,
        "meta_classification_type": "U",
        "meta_norad_cat_id": 28474,
        "meta_element_set_no": 999,
        "meta_rev_at_epoch": 15467,
        "meta_bstar": 0,
        "meta_mean_motion_dot": -8.7e-07,
        "meta_mean_motion_ddot": 0,
        "tle_line1": "1 28474U 04045A   25345.83983661 -.00000087  00000+0  00000+0 0  9995",
        "tle_line2": "2 28474  55.2411 332.4419 0170746 309.2085  53.2722  2.00569463154672"
      },
      "geometry": {
        "type": "Point",
        "coordinates": [
          -173.66856604701078,
          -38.81223431974794
        ]
      }
    },
    {
      "type": "Feature",
      "properties": {
        "norad_id": 28874,
        "name": "GPS BIIRM-1 (PRN 17)",
        "group": "gnss",
        "lat": -7.44482606088234,
        "lon": 105.90979905426221,
        "alt_km": 20265.490774211095,
        "timestamp": "2025-12-13T03:42:11.515802+00:00",
        "meta_object_name": "GPS BIIRM-1 (PRN 17)",
        "meta_object_id": "2005-038A",
        "meta_epoch": "2025-12-10T14:00:21.521088",
        "meta_mean_motion": 2.00578486,
        "meta_eccentricity": 0.0131701,
        "meta_inclination": 55.0338,
        "meta_ra_of_asc_node": 280.7877,
        "meta_arg_of_pericenter": 293.4518,
        "meta_mean_anomaly": 200.7371,
        "meta_ephemeris_type": 0,
        "meta_classification_type": "U",
        "meta_norad_cat_id": 28874,
        "meta_element_set_no": 999,
        "meta_rev_at_epoch": 14805,
        "meta_bstar": 0,
        "meta_mean_motion_dot": -6.4e-07,
        "meta_mean_motion_ddot": 0,
        "tle_line1": "1 28874U 05038A   25344.58358242 -.00000064  00000+0  00000+0 0  9999",
        "tle_line2": "2 28874  55.0338 280.7877 0131701 293.4518 200.7371  2.00578486148057"
      },
      "geometry": {
        "type": "Point",
        "coordinates": [
          105.90979905426221,
          -7.44482606088234
        ]
      }
    }
  ]
}